ORBCOMM FM103           
1 40091U 14040F   24162.43172564  .00001500  00000+0  37002-3 0  9990
2 40091  47.0067 331.5381 0001611 349.5706  10.5145 14.56678593509876
ORBCOMM FM114           
1 41179U 15081A   24162.53273420  .00001753  00000+0  42550-3 0  9992
2 41179  47.0012 240.3240 0000413  53.6161 306.4762 14.56746084450252
ORBCOMM FM119           
1 41180U 15081B   24162.43571429  .00001243  00000+0  31316-3 0  9995
2 41180  46.9992 149.9789 0000795 183.9306 176.1573 14.56657513451499
ORBCOMM FM105           
1 41181U 15081C   24162.60367751  .00000743  00000+0  25884-3 0  9993
2 41181  47.0007 118.9526 0001041  86.1324 273.9675 14.44429781447016
ORBCOMM FM110           
1 41182U 15081D   24162.51012124  .00001759  00000+0  42688-3 0  9994
2 41182  47.0003 239.8384 0003014 262.8511  97.2032 14.56740749450124
ORBCOMM FM118           
1 41183U 15081E   24162.55633063  .00001763  00000+0  42778-3 0  9995
2 41183  47.0027 239.9359 0003049 261.0756  98.9784 14.56729900450234
ORBCOMM FM112           
1 41184U 15081F   24162.27477309  .00002022  00000+0  48602-3 0  9995
2 41184  46.9966 149.9379 0000472 128.8467 231.2460 14.56640701451418
ORBCOMM FM113           
1 41185U 15081G   24162.38922924  .00001970  00000+0  47461-3 0  9999
2 41185  46.9994 149.6714 0000453 189.3938 170.6939 14.56638961451416
